CUTE-1 (CO-55)          
1 27844U 03031E   26193.53707035  .00000153  00000+0  85274-4 0  9991
2 27844  98.6742 201.7775 0010779 109.4665 250.7680 14.24350488195289
CUBESAT XI-IV (CO-57)   
1 27848U 03031J   26193.53826736  .00000128  00000+0  75348-4 0  9998
2 27848  98.6772 201.4707 0010448 126.3839 233.8305 14.23633637194983
CUBESAT XI-V            
1 28895U 05043F   26192.38715503  .00000804  00000+0  13420-3 0  9990
2 28895  98.3011 348.5214 0015131 126.3821 233.8784 14.72696464105311
CUTE-1.7+APD II (CO-65) 
1 32785U 08021C   26193.56979783  .00003132  00000+0  19855-3 0  9990
2 32785  97.8286 175.5222 0007259 310.1799  49.8793 15.09684862989021
CANX-2                  
1 32790U 08021H   26193.40834982  .00002028  00000+0  14434-3 0  9991
2 32790  97.8655 173.6811 0008998 328.5728  31.4960 15.05795912988607
SEEDS II (CO-66)        
1 32791U 08021J   26193.52388480  .00011335  00000+0  35129-3 0  9997
2 32791  97.7520 192.6480 0002793 162.8059 197.3278 15.33607267991170
SWISSCUBE               
1 35932U 09051B   26193.20904170  .00000502  00000+0  10865-3 0  9990
2 35932  98.4012 101.5313 0007715 127.0520 233.1388 14.62527427892815
BEESAT-1                
1 35933U 09051C   26192.68394636  .00000417  00000+0  93456-4 0  9995
2 35933  98.3940 100.5811 0005925 139.0777 221.0870 14.61758535892766
ITUPSAT1                
1 35935U 09051E   26192.97035851  .00000388  00000+0  90106-4 0  9996
2 35935  98.4023 100.0372 0007861 152.4089 207.7529 14.60475983892353
TISAT 1                 
1 36799U 10035E   26193.32586931  .00012411  00000+0  39602-3 0  9992
2 36799  98.0705 142.1248 0004282 125.7412 234.4226 15.32659401871550
STRAND-1                
1 39090U 13009E   26193.46783720  .00000149  00000+0  64299-4 0  9999
2 39090  98.3932  13.0813 0009262 148.5894 211.5848 14.37177891700690
BRITE-AUSTRIA           
1 39091U 13009F   26193.49167969  .00000086  00000+0  43656-4 0  9998
2 39091  98.4006  12.3025 0010611 158.3879 201.7757 14.36551807700684
NEE-01 PEGASO           
1 39151U 13018B   26190.63966526  .00001233  00000+0  12199-3 0  9996
2 39151  98.1250 335.5366 0013875  90.6498 269.6310 14.93776228714050
POPACS 2                
1 39269U 13055E   26193.19994430  .00013503 -90886-6  22033-3 0  9996
2 39269  80.9921 115.5530 0415176 113.4876 251.0542 14.91934936666943
POPACS 3                
1 39270U 13055F   26193.47007032  .00008784  00000+0  20828-3 0  9998
2 39270  80.9985 201.7622 0549132 352.9872   6.3847 14.56613622642233
ZACUBE-1 (TSHEPISOSAT)  
1 39417U 13066B   26193.46865734  .00001312  00000+0  10483-3 0  9999
2 39417  97.8011 155.9308 0043870 163.9572 196.3053 15.01321493684529
WNISAT-1                
1 39423U 13066H   26193.39659923  .00000690  00000+0  13332-3 0  9993
2 39423  97.7230 340.7674 0163707 152.0843 208.9262 14.58116222670407
TRITON-1                
1 39427U 13066M   26193.61930221  .00000672  00000+0  86068-4 0  9992
2 39427  97.8229 102.8458 0090387 150.4294 210.2074 14.81788460677850
GOMX-1                  
1 39430U 13066Q   26193.51576027  .00000868  00000+0  13667-3 0  9996
2 39430  97.6477  32.3804 0128529 356.8321   3.2058 14.69538877673637
CUBEBUG-2 (LO-74)       
1 39440U 13066AA  26193.31516960  .00001823  00000+0  17183-3 0  9994
2 39440  97.8909 142.4045 0055985 305.1332  54.4648 14.93955186680740
NEE-02 KRYSAOR          
1 39441U 13066AB  26192.77553344  .00001515  00000+0  17018-3 0  9996
2 39441  97.8892 131.8170 0065707 350.5702   9.4275 14.86730516679857
FUNCUBE-1 (AO-73)       
1 39444U 13066AE  26192.91261323  .00003917  00000+0  24262-3 0  9995
2 39444  97.8287 164.8814 0037972 118.2418 242.2652 15.09793381683390
UWE-3                   
1 39446U 13066AG  26193.41298972  .00001756  00000+0  15387-3 0  9990
2 39446  97.8700 149.6617 0047509 234.2156 125.4645 14.97187827681355
BRITE-CA1 (TORONTO)     
1 40020U 14033L   26192.83734130  .00000569  00000+0  93137-4 0  9992
2 40020  97.9767 321.3152 0078193 197.0405 162.8175 14.72718584645848
DUCHIFAT-1              
1 40021U 14033M   26192.66620544  .00095138  00000+0  77604-3 0  9993
2 40021  98.0458 255.3713 0001920 269.1618  90.9422 15.70315468659583
NANOSATC-BR1            
1 40024U 14033Q   26193.55007701  .00010975  00000+0  35481-3 0  9992
2 40024  98.0714 228.1994 0005323 102.2683 257.9153 15.32271898657861
QB50P1                  
1 40025U 14033R   26193.52077436  .00005256  00000+0  25721-3 0  9994
2 40025  98.0964 206.4495 0010219 132.7489 227.4606 15.18640557656877
QB50P2                  
1 40032U 14033Y   26193.45711523  .00004004  00000+0  21528-3 0  9997
2 40032  98.0759 191.9172 0009355  91.3787 268.8515 15.15485152656498
PERSEUS-M2              
1 40037U 14033AD  26193.55445838  .00001603  00000+0  14984-3 0  9996
2 40037  97.9968 144.6133 0010670 208.0261 152.0386 14.95586062654577
PERSEUS-M1              
1 40039U 14033AF  26193.32469090  .00001298  00000+0  12198-3 0  9994
2 40039  97.9651 137.8714 0010753 206.5323 153.5348 14.95708575654390
